      2.10          N: GNSS NAV DATA                        RINEX VERSION / TYPE
fic2rin                                 07/14/2019 00:19:04 PGM / RUN BY / DATE
                                                            END OF HEADER
13 19  7 13  6  0  0.0-5.485583096743e-05 1.705302565824e-12 0.000000000000e+00
    1.060000000000e+02-2.137500000000e+01 4.704481674831e-09 3.023758768696e+00
   -1.225620508194e-06 3.549662884325e-03 7.290393114090e-06 5.153660053253e+03
    5.400000000000e+05 1.862645149231e-08-1.521045028396e+00-8.009374141693e-08
    9.674479053114e-01 2.430937500000e+02 1.248281110067e+00-7.941045062116e-09
   -3.082271246112e-10 1.000000000000e+00 2.061000000000e+03 0.000000000000e+00
    2.400000000000e+00 0.000000000000e+00-1.117587089539e-08 1.060000000000e+02
    5.328000000000e+05 4.000000000000e+00
11 19  7 13  6  0  0.0-5.624485202134e-04 9.322320693173e-12 0.000000000000e+00
    6.600000000000e+01-1.289687500000e+02 5.476656696163e-09 1.066915513496e+00
   -6.960704922676e-06 1.673635549378e-02 6.280839443207e-06 5.153721479416e+03
    5.400000000000e+05 3.539025783539e-08 2.096468978462e+00-3.911554813385e-07
    9.099211900070e-01 2.344062500000e+02 1.907627640828e+00-8.817867299567e-09
   -1.189335254873e-10 1.000000000000e+00 2.061000000000e+03 0.000000000000e+00
    2.400000000000e+00 0.000000000000e+00-1.257285475731e-08 6.600000000000e+01
    5.328000000000e+05 4.000000000000e+00
 9 19  7 13  6  0  0.0 3.719977103174e-04-8.299139153678e-12 0.000000000000e+00
    8.200000000000e+01-1.740625000000e+01 5.214145761529e-09-1.944720968863e+00
   -7.953494787216e-07 1.212614355609e-03 6.262212991714e-06 5.153630491257e+03
    5.400000000000e+05 5.587935447693e-09-1.659046456161e+00-1.862645149231e-09
    9.520542327888e-01 2.565000000000e+02 1.724066534840e+00-8.236057350562e-09
   -2.096515899731e-10 1.000000000000e+00 2.061000000000e+03 0.000000000000e+00
    2.400000000000e+00 0.000000000000e+00 1.396983861923e-09 8.200000000000e+01
    5.328000000000e+05 4.000000000000e+00
27 19  7 13  6  0  0.0-1.834989525378e-04-1.068656274583e-11 0.000000000000e+00
    9.200000000000e+01-7.115625000000e+01 4.143029716675e-09-2.337279967378e+00
   -3.574416041374e-06 7.155934930779e-03 2.590939402580e-06 5.153648176193e+03
    5.400000000000e+05-1.117587089539e-08 1.494582848929e+00-1.676380634308e-08
    9.783642468322e-01 3.392500000000e+02 5.163943921849e-01-8.098551622896e-09
   -1.800074980348e-10 1.000000000000e+00 2.061000000000e+03 0.000000000000e+00
    2.400000000000e+00 0.000000000000e+00 1.396983861923e-09 9.200000000000e+01
    5.328000000000e+05 4.000000000000e+00
25 19  7 13  6  0  0.0-7.729870267212e-04-2.728484105319e-12 0.000000000000e+00
    5.500000000000e+01 9.412500000000e+01 4.465185992919e-09 7.792267235208e-02
    4.999339580536e-06 8.396156597883e-03 4.436820745468e-06 5.153690853119e+03
    5.400000000000e+05 1.303851604462e-08 4.524535959484e-01 1.378357410431e-07
    9.699452059511e-01 2.967500000000e+02 9.042415553932e-01-8.296059849907e-09
    3.857303529318e-11 1.000000000000e+00 2.061000000000e+03 0.000000000000e+00
    2.400000000000e+00 0.000000000000e+00 6.053596735001e-09 5.500000000000e+01
    5.328000000000e+05 4.000000000000e+00
30 19  7 13  6  0  0.0-1.421188935637e-04-7.503331289627e-12 0.000000000000e+00
    7.800000000000e+01 5.778125000000e+01 4.889132223410e-09 1.156008428505e+00
    3.220513463020e-06 4.150459892116e-03 1.067295670509e-05 5.153788738251e+03
    5.400000000000e+05 2.607703208923e-08-5.555873938736e-01 2.607703208923e-08
    9.406736546964e-01 1.604375000000e+02-2.932901878770e+00-8.131052976708e-09
   -3.857303529318e-10 1.000000000000e+00 2.061000000000e+03 0.000000000000e+00
    2.400000000000e+00 0.000000000000e+00 3.725290298462e-09 7.800000000000e+01
    5.328000000000e+05 4.000000000000e+00
15 19  7 13  6  0  0.0-3.012255765498e-04 2.387423592154e-12 0.000000000000e+00
    8.600000000000e+01-1.925000000000e+01 5.665950295287e-09 3.093652632101e+00
   -1.130625605583e-06 1.145538047422e-02 6.059184670448e-06 5.153714929581e+03
    5.400000000000e+05-7.078051567078e-08-1.740309877498e+00-2.086162567139e-07
    9.275866865316e-01 2.467500000000e+02 7.861546134666e-01-8.337847304808e-09
   -1.632210845276e-10 1.000000000000e+00 2.061000000000e+03 0.000000000000e+00
    2.400000000000e+00 0.000000000000e+00-1.117587089539e-08 8.600000000000e+01
    5.328000000000e+05 4.000000000000e+00
23 19  7 13  6  0  0.0-1.774760894477e-04 1.818989403546e-12 0.000000000000e+00
    1.000000000000e+02-2.140625000000e+01 5.321293081787e-09 2.616787091023e+00
   -1.216307282448e-06 1.333651051391e-02 6.362795829773e-06 5.153546691895e+03
    5.400000000000e+05 3.166496753693e-08-1.664619152926e+00-2.235174179077e-07
    9.428660539500e-01 2.495937500000e+02-2.239828743069e+00-8.100694569301e-09
   -2.414386283166e-10 1.000000000000e+00 2.061000000000e+03 0.000000000000e+00
    2.400000000000e+00 0.000000000000e+00-2.048909664154e-08 1.000000000000e+02
    5.328000000000e+05 4.000000000000e+00
14 19  7 13  6  0  0.0-7.177144289017e-05 1.818989403546e-12 0.000000000000e+00
    5.700000000000e+01-1.559375000000e+01 4.874131598574e-09-2.564708769798e+00
   -8.363276720047e-07 1.077883166727e-02 6.839632987976e-06 5.153715635300e+03
    5.400000000000e+05 2.514570951462e-07-1.565793465880e+00 4.656612873077e-08
    9.600222370082e-01 2.439687500000e+02-1.932221714870e+00-7.951045478673e-09
   -2.307238962907e-10 1.000000000000e+00 2.061000000000e+03 0.000000000000e+00
    2.400000000000e+00 0.000000000000e+00-9.778887033463e-09 5.700000000000e+01
    5.328000000000e+05 4.000000000000e+00
19 19  7 13  6  0  0.0-2.948124893010e-04 4.888534022029e-12 0.000000000000e+00
    6.400000000000e+01-6.903125000000e+01 4.074812589443e-09 3.984316461516e-01
   -3.520399332047e-06 9.631765191443e-03 3.434717655182e-06 5.153637090683e+03
    5.400000000000e+05-2.086162567139e-07 1.597253921477e+00-1.564621925354e-07
    9.818226232075e-01 3.308125000000e+02 1.451338547242e+00-8.132124449911e-09
   -2.957266039144e-10 1.000000000000e+00 2.061000000000e+03 0.000000000000e+00
    2.400000000000e+00 0.000000000000e+00-1.536682248116e-08 6.400000000000e+01
    5.328000000000e+05 4.000000000000e+00
21 19  7 13  6  0  0.0-1.556901261210e-04 7.048583938740e-12 0.000000000000e+00
    7.600000000000e+01-8.400000000000e+01 4.538760486164e-09-5.414902178696e-02
   -4.455447196960e-06 2.450879977550e-02 9.834766387939e-06 5.153706403732e+03
    5.400000000000e+05-5.252659320831e-07 2.484845557094e+00-1.173466444016e-07
    9.492730821542e-01 1.910000000000e+02-1.429927509375e+00-8.394635384545e-09
    1.328626771209e-10 1.000000000000e+00 2.061000000000e+03 0.000000000000e+00
    2.400000000000e+00 0.000000000000e+00-1.024454832077e-08 7.600000000000e+01
    5.328000000000e+05 4.000000000000e+00
32 19  7 13  6  0  0.0-5.044508725405e-06 1.534772309242e-11 0.000000000000e+00
    8.000000000000e+01-1.425000000000e+01 5.036638367633e-09-1.650938996350e+00
   -7.078051567078e-07 3.183658816852e-03 6.554648280144e-06 5.153597894669e+03
    5.400000000000e+05 5.215406417847e-08-1.652124452998e+00 5.774199962616e-08
    9.562924703113e-01 2.496875000000e+02-2.479029767232e+00-8.147125074747e-09
   -1.846505485794e-10 1.000000000000e+00 2.061000000000e+03 0.000000000000e+00
    2.400000000000e+00 0.000000000000e+00 4.656612873077e-10 8.000000000000e+01
    5.328000000000e+05 4.000000000000e+00
31 19  7 13  6  0  0.0 2.466561272740e-05-2.614797267597e-12 0.000000000000e+00
    8.500000000000e+01 6.431250000000e+01 4.438042005121e-09 8.500849820231e-01
    3.470107913017e-06 9.237494203262e-03 1.050904393196e-05 5.153654239655e+03
    5.400000000000e+05 1.080334186554e-07-5.688283692762e-01 9.499490261078e-08
    9.597647122241e-01 1.724062500000e+02 9.960211911377e-03-7.908186550570e-09
   -4.318037006431e-10 1.000000000000e+00 2.061000000000e+03 0.000000000000e+00
    2.400000000000e+00 0.000000000000e+00-1.350417733192e-08 8.500000000000e+01
    5.328000000000e+05 4.000000000000e+00
18 19  7 13  6  0  0.0 6.946176290512e-05 3.069544618484e-12 0.000000000000e+00
    4.900000000000e+01-1.075000000000e+02 4.236605043034e-09 1.529870235316e+00
   -5.722045898438e-06 1.557458040770e-02 9.907409548759e-06 5.153697046280e+03
    5.400000000000e+05-1.545995473862e-07 2.494245450900e+00-3.408640623093e-07
    9.549410075717e-01 1.875937500000e+02 1.406690186521e+00-8.014976713094e-09
    1.575065607805e-10 1.000000000000e+00 2.061000000000e+03 0.000000000000e+00
    2.400000000000e+00 0.000000000000e+00-5.587935447693e-09 4.900000000000e+01
    5.328000000000e+05 4.000000000000e+00
29 19  7 13  6  0  0.0 1.527443528175e-04-9.777068044059e-12 0.000000000000e+00
    7.600000000000e+01-6.593750000000e+01 4.058383333670e-09-1.899207545183e+00
   -3.499910235405e-06 1.212920411490e-03 3.540888428688e-06 5.153725975037e+03
    5.400000000000e+05-7.450580596924e-09 1.562286634732e+00 2.421438694000e-08
    9.854267281672e-01 3.237812500000e+02 1.830841168672e+00-8.044620805033e-09
   -2.532248335450e-10 1.000000000000e+00 2.061000000000e+03 0.000000000000e+00
    2.400000000000e+00 0.000000000000e+00-9.778887033463e-09 7.600000000000e+01
    5.328000000000e+05 4.000000000000e+00
17 19  7 13  6  0  0.0 8.779624477029e-05 6.707523425575e-12 0.000000000000e+00
    8.100000000000e+01-6.968750000000e+01 3.962307903171e-09-2.414823332868e+00
   -3.511086106300e-06 1.287052303087e-02 2.596527338028e-06 5.153765930176e+03
    5.400000000000e+05 1.918524503708e-07 1.551068673150e+00-9.872019290924e-08
    9.839407018340e-01 3.429062500000e+02-1.711792707746e+00-7.787467236411e-09
   -1.992940156814e-10 1.000000000000e+00 2.061000000000e+03 0.000000000000e+00
    2.400000000000e+00 0.000000000000e+00-1.117587089539e-08 8.100000000000e+01
    5.328000000000e+05 4.000000000000e+00
